{
  "type": "FeatureCollection",
  "features": [
    {
      "type": "Feature",
      "properties": {
        "norad_id": 35885,
        "name": "COSMOS 2251 DEB",
        "group": "cosmos-2251-debris",
        "lat": -69.54168991080958,
        "lon": 162.88148154229927,
        "alt_km": 780.7985615674106,
        "timestamp": "2025-12-13T20:38:51.404723+00:00",
        "meta_object_name": "COSMOS 2251 DEB",
        "meta_object_id": "1993-036ATY",
        "meta_epoch": "2025-12-11T14:00:29.145024",
        "meta_mean_motion": 14.3751698,
        "meta_eccentricity": 0.00231325,
        "meta_inclination": 74.0283,
        "meta_ra_of_asc_node": 296.9234,
        "meta_arg_of_pericenter": 17.6536,
        "meta_mean_anomaly": 342.5416,
        "meta_ephemeris_type": 0,
        "meta_classification_type": "U",
        "meta_norad_cat_id": 35885,
        "meta_element_set_no": 999,
        "meta_rev_at_epoch": 64999,
        "meta_bstar": 0.0005257643,
        "meta_mean_motion_dot": 1.554e-05,
        "meta_mean_motion_ddot": 0,
        "tle_line1": "1 35885U 93036ATY 25345.58367066  .00001554  00000+0  52576-3 0  9992",
        "tle_line2": "2 35885  74.0283 296.9234 0023132  17.6536 342.5416 14.37516980649995"
      },
      "geometry": {
        "type": "Point",
        "coordinates": [
          162.88148154229927,
          -69.54168991080958
        ]
      }
    },
    {
      "type": "Feature",
      "properties": {
        "norad_id": 35888,
        "name": "COSMOS 2251 DEB",
        "group": "cosmos-2251-debris",
        "lat": -60.55473805949789,
        "lon": -35.93917035677681,
        "alt_km": 738.8495970823387,
        "timestamp": "2025-12-13T20:38:51.404733+00:00",
        "meta_object_name": "COSMOS 2251 DEB",
        "meta_object_id": "1993-036AUB",
        "meta_epoch": "2025-12-12T07:04:48.029376",
        "meta_mean_motion": 14.58316356,
        "meta_eccentricity": 0.00482275,
        "meta_inclination": 74.0337,
        "meta_ra_of_asc_node": 357.5138,
        "meta_arg_of_pericenter": 129.7983,
        "meta_mean_anomaly": 230.7443,
        "meta_ephemeris_type": 0,
        "meta_classification_type": "U",
        "meta_norad_cat_id": 35888,
        "meta_element_set_no": 999,
        "meta_rev_at_epoch": 86267,
        "meta_bstar": 0.00060064021,
        "meta_mean_motion_dot": 2.795e-05,
        "meta_mean_motion_ddot": 0,
        "tle_line1": "1 35888U 93036AUB 25346.29500034  .00002795  00000+0  60064-3 0  9997",
        "tle_line2": "2 35888  74.0337 357.5138 0048227 129.7983 230.7443 14.58316356862676"
      },
      "geometry": {
        "type": "Point",
        "coordinates": [
          -35.93917035677681,
          -60.55473805949789
        ]
      }
    },
    {
      "type": "Feature",
      "properties": {
        "norad_id": 35890,
        "name": "COSMOS 2251 DEB",
        "group": "cosmos-2251-debris",
        "lat": -25.41280000010242,
        "lon": -127.30916753785284,
        "alt_km": 673.8862202302562,
        "timestamp": "2025-12-13T20:38:51.404743+00:00",
        "meta_object_name": "COSMOS 2251 DEB",
        "meta_object_id": "1993-036AUD",
        "meta_epoch": "2025-12-11T11:06:40.401504",
        "meta_mean_motion": 14.57450007,
        "meta_eccentricity": 0.00537284,
        "meta_inclination": 73.9357,
        "meta_ra_of_asc_node": 245.1419,
        "meta_arg_of_pericenter": 9.9774,
        "meta_mean_anomaly": 350.2442,
        "meta_ephemeris_type": 0,
        "meta_classification_type": "U",
        "meta_norad_cat_id": 35890,
        "meta_element_set_no": 999,
        "meta_rev_at_epoch": 65132,
        "meta_bstar": 0.0035408438,
        "meta_mean_motion_dot": 0.00016406,
        "meta_mean_motion_ddot": 0,
        "tle_line1": "1 35890U 93036AUD 25345.46296761  .00016406  00000+0  35408-2 0  9994",
        "tle_line2": "2 35890  73.9357 245.1419 0053728   9.9774 350.2442 14.57450007651328"
      },
      "geometry": {
        "type": "Point",
        "coordinates": [
          -127.30916753785284,
          -25.41280000010242
        ]
      }
    },
    {
      "type": "Feature",
      "properties": {
        "norad_id": 35891,
        "name": "COSMOS 2251 DEB",
        "group": "cosmos-2251-debris",
        "lat": 4.354910412913433,
        "lon": -89.78174110694607,
        "alt_km": 446.9839284106474,
        "timestamp": "2025-12-13T20:38:51.404753+00:00",
        "meta_object_name": "COSMOS 2251 DEB",
        "meta_object_id": "1993-036AUE",
        "meta_epoch": "2025-12-12T23:31:35.861952",
        "meta_mean_motion": 15.33352498,
        "meta_eccentricity": 0.00436495,
        "meta_inclination": 73.9891,
        "meta_ra_of_asc_node": 93.3587,
        "meta_arg_of_pericenter": 223.8568,
        "meta_mean_anomaly": 135.9169,
        "meta_ephemeris_type": 0,
        "meta_classification_type": "U",
        "meta_norad_cat_id": 35891,
        "meta_element_set_no": 999,
        "meta_rev_at_epoch": 67224,
        "meta_bstar": 0.0018817485,
        "meta_mean_motion_dot": 0.00063011,
        "meta_mean_motion_ddot": 0,
        "tle_line1": "1 35891U 93036AUE 25346.98027618  .00063011  00000+0  18817-2 0  9995",
        "tle_line2": "2 35891  73.9891  93.3587 0043649 223.8568 135.9169 15.33352498672248"
      },
      "geometry": {
        "type": "Point",
        "coordinates": [
          -89.78174110694607,
          4.354910412913433
        ]
      }
    },
    {
      "type": "Feature",
      "properties": {
        "norad_id": 35895,
        "name": "COSMOS 2251 DEB",
        "group": "cosmos-2251-debris",
        "lat": -39.50353258234925,
        "lon": -27.914532742120176,
        "alt_km": 975.6745153457014,
        "timestamp": "2025-12-13T20:38:51.404763+00:00",
        "meta_object_name": "COSMOS 2251 DEB",
        "meta_object_id": "1993-036AUJ",
        "meta_epoch": "2025-12-11T07:10:31.732032",
        "meta_mean_motion": 14.01513994,
        "meta_eccentricity": 0.01987879,
        "meta_inclination": 74.0502,
        "meta_ra_of_asc_node": 350.1634,
        "meta_arg_of_pericenter": 88.7843,
        "meta_mean_anomaly": 273.6056,
        "meta_ephemeris_type": 0,
        "meta_classification_type": "U",
        "meta_norad_cat_id": 35895,
        "meta_element_set_no": 999,
        "meta_rev_at_epoch": 58992,
        "meta_bstar": 0.0020881347,
        "meta_mean_motion_dot": 3.73e-05,
        "meta_mean_motion_ddot": 0,
        "tle_line1": "1 35895U 93036AUJ 25345.29897838  .00003730  00000+0  20881-2 0  9997",
        "tle_line2": "2 35895  74.0502 350.1634 0198787  88.7843 273.6056 14.01513994589929"
      },
      "geometry": {
        "type": "Point",
        "coordinates": [
          -27.914532742120176,
          -39.50353258234925
        ]
      }
    },
    {
      "type": "Feature",
      "properties": {
        "norad_id": 35898,
        "name": "COSMOS 2251 DEB",
        "group": "cosmos-2251-debris",
        "lat": -20.790555704835143,
        "lon": 121.4493609905525,
        "alt_km": 617.9739297450178,
        "timestamp": "2025-12-13T20:38:51.404773+00:00",
        "meta_object_name": "COSMOS 2251 DEB",
        "meta_object_id": "1993-036AUM",
        "meta_epoch": "2025-12-11T03:33:58.696128",
        "meta_mean_motion": 14.94658859,
        "meta_eccentricity": 0.00792199,
        "meta_inclination": 73.9916,
        "meta_ra_of_asc_node": 300.6702,
        "meta_arg_of_pericenter": 84.5945,
        "meta_mean_anomaly": 290.8859,
        "meta_ephemeris_type": 0,
        "meta_classification_type": "U",
        "meta_norad_cat_id": 35898,
        "meta_element_set_no": 999,
        "meta_rev_at_epoch": 66786,
        "meta_bstar": 0.001087469,
        "meta_mean_motion_dot": 0.00012532,
        "meta_mean_motion_ddot": 0,
        "tle_line1": "1 35898U 93036AUM 25345.14859602  .00012532  00000+0  10875-2 0  9993",
        "tle_line2": "2 35898  73.9916 300.6702 0079219  84.5945 290.8859 14.94658859667864"
      },
      "geometry": {
        "type": "Point",
        "coordinates": [
          121.4493609905525,
          -20.790555704835143
        ]
      }
    },
    {
      "type": "Feature",
      "properties": {
        "norad_id": 35901,
        "name": "COSMOS 2251 DEB",
        "group": "cosmos-2251-debris",
        "lat": -67.98882280148544,
        "lon": -114.25792100689456,
        "alt_km": 551.5572751415866,
        "timestamp": "2025-12-13T20:38:51.404784+00:00",
        "meta_object_name": "COSMOS 2251 DEB",
        "meta_object_id": "1993-036AUQ",
        "meta_epoch": "2025-12-07T10:36:21.692736",
        "meta_mean_motion": 15.06319673,
        "meta_eccentricity": 0.00066034,
        "meta_inclination": 74.0121,
        "meta_ra_of_asc_node": 33.7639,
        "meta_arg_of_pericenter": 0.5644,
        "meta_mean_anomaly": 13.1472,
        "meta_ephemeris_type": 0,
        "meta_classification_type": "U",
        "meta_norad_cat_id": 35901,
        "meta_element_set_no": 999,
        "meta_rev_at_epoch": 86047,
        "meta_bstar": 0.0047775116,
        "meta_mean_motion_dot": 0.0007096,
        "meta_mean_motion_ddot": 0,
        "tle_line1": "1 35901U 93036AUQ 25341.44191774  .00070960  00000+0  47775-2 0  9994",
        "tle_line2": "2 35901  74.0121  33.7639 0006603   0.5644  13.1472 15.06319673860474"
      },
      "geometry": {
        "type": "Point",
        "coordinates": [
          -114.25792100689456,
          -67.98882280148544
        ]
      }
    }
  ]
}